
    {
        "ARG_OF_PERICENTER": 141.5482,
        "BSTAR": 0.00077496,
        "CLASSIFICATION_TYPE": "U",
        "ECCENTRICITY": 0.0006908,
        "ELEMENT_SET_NO": 999,
        "EPHEMERIS_TYPE": 0,
        "EPOCH": "2026-05-04T16:02:27.250944",
        "INCLINATION": 97.994,
        "MEAN_ANOMALY": 218.6261,
        "MEAN_MOTION": 15.50827448,
        "MEAN_MOTION_DDOT": 0,
        "MEAN_MOTION_DOT": 0.00044843,
        "NORAD_CAT_ID": 41849,
        "OBJECT_ID": "2016-067B",
        "OBJECT_NAME": "RAVAN",
        "RA_OF_ASC_NODE": 9.3502,
        "REV_AT_EPOCH": 52094
    },
    {
        "ARG_OF_PERICENTER": 68.8763,
        "BSTAR": 0.00025494,
        "CLASSIFICATION_TYPE": "U",
        "ECCENTRICITY": 0.0002151,
        "ELEMENT_SET_NO": 999,
        "EPHEMERIS_TYPE": 0,
        "EPOCH": "2026-05-04T13:05:40.981344",
        "INCLINATION": 98.0726,
        "MEAN_ANOMALY": 291.2699,
        "MEAN_MOTION": 15.192553,
        "MEAN_MOTION_DDOT": 0,
        "MEAN_MOTION_DOT": 5.297e-05,
        "NORAD_CAT_ID": 41850,
        "OBJECT_ID": "2016-067C",
        "OBJECT_NAME": "CELTEE 1",
        "RA_OF_ASC_NODE": 348.1385,
        "REV_AT_EPOCH": 51925
    },
    {
        "ARG_OF_PERICENTER": 265.0552,
        "BSTAR": 0.00017083507,
        "CLASSIFICATION_TYPE": "U",
        "ECCENTRICITY": 0.00142983,
        "ELEMENT_SET_NO": 999,
        "EPHEMERIS_TYPE": 0,
        "EPOCH": "2026-05-04T12:42:23.200416",
        "INCLINATION": 98.0741,
        "MEAN_ANOMALY": 94.9043,
        "MEAN_MOTION": 15.09475628,
        "MEAN_MOTION_DDOT": 0,
        "MEAN_MOTION_DOT": 2.67e-05,
        "NORAD_CAT_ID": 41851,
        "OBJECT_ID": "2016-067D",
        "OBJECT_NAME": "OPTICUBE 04",
        "RA_OF_ASC_NODE": 334.5303,
        "REV_AT_EPOCH": 51858
    },
    {
        "ARG_OF_PERICENTER": 298.3032,
        "BSTAR": 0.00032818,
        "CLASSIFICATION_TYPE": "U",
        "ECCENTRICITY": 0.0001996,
        "ELEMENT_SET_NO": 999,
        "EPHEMERIS_TYPE": 0,
        "EPOCH": "2026-05-04T13:27:22.166208",
        "INCLINATION": 98.0736,
        "MEAN_ANOMALY": 61.8002,
        "MEAN_MOTION": 15.23794045,
        "MEAN_MOTION_DDOT": 0,
        "MEAN_MOTION_DOT": 7.822e-05,
        "NORAD_CAT_ID": 41852,
        "OBJECT_ID": "2016-067E",
        "OBJECT_NAME": "AEROCUBE 8D",
        "RA_OF_ASC_NODE": 351.4218,
        "REV_AT_EPOCH": 51942
    },
    {
        "ARG_OF_PERICENTER": 196.172,
        "BSTAR": 0.0003099,
        "CLASSIFICATION_TYPE": "U",
        "ECCENTRICITY": 0.0004749,
        "ELEMENT_SET_NO": 999,
        "EPHEMERIS_TYPE": 0,
        "EPOCH": "2026-05-04T12:38:45.024000",
        "INCLINATION": 98.0606,
        "MEAN_ANOMALY": 163.9365,
        "MEAN_MOTION": 15.24028888,
        "MEAN_MOTION_DDOT": 0,
        "MEAN_MOTION_DOT": 7.435e-05,
        "NORAD_CAT_ID": 41853,
        "OBJECT_ID": "2016-067F",
        "OBJECT_NAME": "AEROCUBE 8C",
        "RA_OF_ASC_NODE": 348.6704,
        "REV_AT_EPOCH": 51941
    },
    {
        "ARG_OF_PERICENTER": 260.6488,
        "BSTAR": 0.00022767338,
        "CLASSIFICATION_TYPE": "U",
        "ECCENTRICITY": 0.00118449,
        "ELEMENT_SET_NO": 999,
        "EPHEMERIS_TYPE": 0,
        "EPOCH": "2026-05-04T09:54:55.311552",
        "INCLINATION": 97.4017,
        "MEAN_ANOMALY": 99.3401,
        "MEAN_MOTION": 15.06014623,
        "MEAN_MOTION_DDOT": 0,
        "MEAN_MOTION_DOT": 3.265e-05,
        "NORAD_CAT_ID": 42846,
        "OBJECT_ID": "2017-042X",
        "OBJECT_NAME": "CORVUS BC2",
        "RA_OF_ASC_NODE": 287.4846,
        "REV_AT_EPOCH": 48047
    },
    {
        "ARG_OF_PERICENTER": 234.7053,
        "BSTAR": 0.00025174233,
        "CLASSIFICATION_TYPE": "U",
        "ECCENTRICITY": 0.00109286,
        "ELEMENT_SET_NO": 999,
        "EPHEMERIS_TYPE": 0,
        "EPOCH": "2026-05-04T09:54:19.133280",
        "INCLINATION": 97.4054,
        "MEAN_ANOMALY": 125.3153,
        "MEAN_MOTION": 15.06183091,
        "MEAN_MOTION_DDOT": 0,
        "MEAN_MOTION_DOT": 3.632e-05,
        "NORAD_CAT_ID": 42847,
        "OBJECT_ID": "2017-042Y",
        "OBJECT_NAME": "CORVUS BC1",
        "RA_OF_ASC_NODE": 288.2692,
        "REV_AT_EPOCH": 48050
    },
    {
        "ARG_OF_PERICENTER": 68.2597,
        "BSTAR": 0.00068461,
        "CLASSIFICATION_TYPE": "U",
        "ECCENTRICITY": 0.0113074,
        "ELEMENT_SET_NO": 999,
        "EPHEMERIS_TYPE": 0,
        "EPOCH": "2026-05-04T15:44:40.185024",
        "INCLINATION": 97.4683,
        "MEAN_ANOMALY": 293.0634,
        "MEAN_MOTION": 15.30244193,
        "MEAN_MOTION_DDOT": 0,
        "MEAN_MOTION_DOT": 0.00024367,
        "NORAD_CAT_ID": 43016,
        "OBJECT_ID": "2017-073D",
        "OBJECT_NAME": "MAKERSAT 0",
        "RA_OF_ASC_NODE": 6.8854,
        "REV_AT_EPOCH": 45980
    },
    {
        "ARG_OF_PERICENTER": 92.9042,
        "BSTAR": 0.00024700562,
        "CLASSIFICATION_TYPE": "U",
        "ECCENTRICITY": 0.00105161,
        "ELEMENT_SET_NO": 999,
        "EPHEMERIS_TYPE": 0,
        "EPOCH": "2026-05-04T08:56:18.079872",
        "INCLINATION": 97.4283,
        "MEAN_ANOMALY": 267.3393,
        "MEAN_MOTION": 15.14146926,
        "MEAN_MOTION_DDOT": 0,
        "MEAN_MOTION_DOT": 4.443e-05,
        "NORAD_CAT_ID": 43759,
        "OBJECT_ID": "2018-099B",
        "OBJECT_NAME": "SIRION PATHFINDER-2",
        "RA_OF_ASC_NODE": 174.4765,
        "REV_AT_EPOCH": 40599
    },
    {
        "ARG_OF_PERICENTER": 142.9375,
        "BSTAR": 0.00026031,
        "CLASSIFICATION_TYPE": "U",
        "ECCENTRICITY": 0.0009466,
        "ELEMENT_SET_NO": 999,
        "EPHEMERIS_TYPE": 0,
        "EPOCH": "2026-05-04T15:37:27.942240",
        "INCLINATION": 97.41,
        "MEAN_ANOMALY": 217.2511,
        "MEAN_MOTION": 15.12143974,
        "MEAN_MOTION_DDOT": 0,
        "MEAN_MOTION_DOT": 4.428e-05,
        "NORAD_CAT_ID": 43767,
        "OBJECT_ID": "2018-099K",
        "OBJECT_NAME": "CORVUS BC4",
        "RA_OF_ASC_NODE": 168.9091,
        "REV_AT_EPOCH": 40582
    },
    {
        "ARG_OF_PERICENTER": 303.8385,
        "BSTAR": 0.0001908009,
        "CLASSIFICATION_TYPE": "U",
        "ECCENTRICITY": 0.00106192,
        "ELEMENT_SET_NO": 999,
        "EPHEMERIS_TYPE": 0,
        "EPOCH": "2026-05-04T11:39:25.424352",
        "INCLINATION": 97.815,
        "MEAN_ANOMALY": 56.183,
        "MEAN_MOTION": 15.044791,
        "MEAN_MOTION_DDOT": 0,
        "MEAN_MOTION_DOT": 2.608e-05,
        "NORAD_CAT_ID": 45727,
        "OBJECT_ID": "2020-037E",
        "OBJECT_NAME": "M2 PATHFINDER",
        "RA_OF_ASC_NODE": 315.2285,
        "REV_AT_EPOCH": 31892
    },
    {
        "ARG_OF_PERICENTER": 111.9534,
        "BSTAR": 0.00041902,
        "CLASSIFICATION_TYPE": "U",
        "ECCENTRICITY": 0.0007625,
        "ELEMENT_SET_NO": 999,
        "EPHEMERIS_TYPE": 0,
        "EPOCH": "2026-05-04T13:09:19.196640",
        "INCLINATION": 97.862,
        "MEAN_ANOMALY": 248.2523,
        "MEAN_MOTION": 15.42432472,
        "MEAN_MOTION_DDOT": 0,
        "MEAN_MOTION_DOT": 0.00018062,
        "NORAD_CAT_ID": 46504,
        "OBJECT_ID": "2020-068U",
        "OBJECT_NAME": "NETSAT-4",
        "RA_OF_ASC_NODE": 129.3338,
        "REV_AT_EPOCH": 30904
    },
    {
        "ARG_OF_PERICENTER": 124.579,
        "BSTAR": 0.00044536,
        "CLASSIFICATION_TYPE": "U",
        "ECCENTRICITY": 0.0007232,
        "ELEMENT_SET_NO": 999,
        "EPHEMERIS_TYPE": 0,
        "EPOCH": "2026-05-04T14:02:22.163136",
        "INCLINATION": 97.8669,
        "MEAN_ANOMALY": 235.6138,
        "MEAN_MOTION": 15.41195571,
        "MEAN_MOTION_DDOT": 0,
        "MEAN_MOTION_DOT": 0.00018427,
        "NORAD_CAT_ID": 46505,
        "OBJECT_ID": "2020-068V",
        "OBJECT_NAME": "NETSAT-3",
        "RA_OF_ASC_NODE": 127.6477,
        "REV_AT_EPOCH": 30896
    }