RAVAN                   
1 41849U 16067B   26124.66837096  .00044843  00000+0  77496-3 0  9994
2 41849  97.9940   9.3502 0006908 141.5482 218.6261 15.50827448520943
CELTEE 1                
1 41850U 16067C   26124.54561321  .00005297  00000+0  25494-3 0  9999
2 41850  98.0726 348.1385 0002151  68.8763 291.2699 15.19255300519252
OPTICUBE 04             
1 41851U 16067D   26124.52943519  .00002670  00000+0  17084-3 0  9999
2 41851  98.0741 334.5303 0014298 265.0552  94.9043 15.09475628518583
AEROCUBE 8D             
1 41852U 16067E   26124.56067322  .00007822  00000+0  32818-3 0  9999
2 41852  98.0736 351.4218 0001996 298.3032  61.8002 15.23794045519429
AEROCUBE 8C             
1 41853U 16067F   26124.52691000  .00007435  00000+0  30990-3 0  9991
2 41853  98.0606 348.6704 0004749 196.1720 163.9365 15.24028888519413
CORVUS BC2              
1 42846U 17042X   26124.41314018  .00003265  00000+0  22767-3 0  9997
2 42846  97.4017 287.4846 0011844 260.6488  99.3401 15.06014623480472
CORVUS BC1              
1 42847U 17042Y   26124.41272145  .00003632  00000+0  25174-3 0  9995
2 42847  97.4054 288.2692 0010928 234.7053 125.3153 15.06183091480508
MAKERSAT 0              
1 43016U 17073D   26124.65602066  .00024367  00000+0  68461-3 0  9997
2 43016  97.4683   6.8854 0113074  68.2597 293.0634 15.30244193459802
SIRION PATHFINDER-2     
1 43759U 18099B   26124.37243148  .00004443  00000+0  24701-3 0  9993
2 43759  97.4283 174.4765 0010516  92.9042 267.3393 15.14146926405995
CORVUS BC4              
1 43767U 18099K   26124.65101785  .00004428  00000+0  26031-3 0  9994
2 43767  97.4100 168.9091 0009466 142.9375 217.2511 15.12143974405825
M2 PATHFINDER           
1 45727U 20037E   26124.48571093  .00002608  00000+0  19080-3 0  9995
2 45727  97.8150 315.2285 0010619 303.8385  56.1830 15.04479100318927
NETSAT-4                
1 46504U 20068U   26124.54813885  .00018062  00000+0  41902-3 0  9997
2 46504  97.8620 129.3338 0007625 111.9534 248.2523 15.42432472309042
NETSAT-3                
1 46505U 20068V   26124.58497874  .00018427  00000+0  44536-3 0  9999
2 46505  97.8669 127.6477 0007232 124.5790 235.6138 15.41195571308966
